{"type":"FeatureCollection","name":"son_nerve_areas","metadata":{"status":"Hubs approved by Brandon 2026-09-26; off-hub clusters and fallbacks still draft","home":{"address":"207 E St. Elmo Rd","lon":-97.76533,"lat":30.216555},"sources":["data.austintexas.gov inrm-c3ee","data.austintexas.gov 8hf2-pdmb"],"fallback":"config/area_fallbacks.json"},"features":[{"type":"Feature","geometry":{"type":"Polygon","coordinates":[[[-97.742071,30.281843],[-97.741659,30.281664],[-97.739446,30.281026],[-97.738115,30.280693],[-97.729901,30.27834],[-97.73013,30.277897],[-97.731354,30.274913],[-97.734157,30.267059],[-97.734398,30.266217],[-97.734728,30.26547],[-97.736281,30.261145],[-97.738828,30.261795],[-97.740548,30.256492],[-97.740728,30.257096],[-97.741051,30.257782],[-97.741205,30.258838],[-97.741307,30.259201],[-97.741121,30.25948],[-97.740834,30.259656],[-97.74027,30.260236],[-97.740065,30.260708],[-97.739991,30.261328],[-97.739581,30.261724],[-97.740172,30.261678],[-97.74034,30.261321],[-97.740419,30.260866],[-97.740622,30.260416],[-97.740915,30.260023],[-97.741212,30.259842],[-97.741404,30.259783],[-97.7426,30.260657],[-97.743304,30.261516],[-97.744269,30.262231],[-97.744855,30.26258],[-97.742821,30.268071],[-97.749532,30.26995],[-97.751716,30.270677],[-97.754089,30.27159],[-97.753462,30.272814],[-97.752691,30.274526],[-97.751482,30.276983],[-97.751055,30.277947],[-97.750876,30.278569],[-97.75078,30.279958],[-97.750687,30.280106],[-97.750643,30.280733],[-97.750788,30.281583],[-97.750997,30.282137],[-97.751113,30.282164],[-97.751379,30.282416],[-97.75114,30.282371],[-97.751206,30.282466],[-97.752268,30.28365],[-97.750113,30.283934],[-97.749913,30.283908],[-97.742071,30.281843]]]},"properties":{"area_id":"dt_core","name":"Downtown","tier":"hub","hub":"Downtown","subsection":null,"status":"approved","rule":"Downtown NPA (Lady Bird Lake to MLK, Lamar to I-35) minus Rainey Street and 2nd Street / Warehouse","area_sq_mi":1.345}},{"type":"Feature","geometry":{"type":"Polygon","coordinates":[[[-97.737148,30.258146],[-97.737171,30.257866],[-97.736988,30.256],[-97.736808,30.255113],[-97.73645,30.254804],[-97.736287,30.253777],[-97.73587,30.252],[-97.735852,30.251763],[-97.736043,30.251335],[-97.736715,30.251671],[-97.736789,30.251854],[-97.737564,30.252436],[-97.737777,30.252721],[-97.738683,30.253336],[-97.738898,30.253555],[-97.739055,30.253847],[-97.73912,30.254143],[-97.739382,30.254219],[-97.739561,30.254402],[-97.739858,30.254952],[-97.740065,30.255465],[-97.740184,30.255988],[-97.74048,30.256219],[-97.740548,30.256492],[-97.738828,30.261795],[-97.736281,30.261145],[-97.736818,30.259602],[-97.737148,30.258146]]]},"properties":{"area_id":"dt_rainey","name":"Rainey Street","tier":"hub","hub":"Rainey Street","subsection":null,"status":"approved","rule":"Downtown NPA south of Cesar Chavez and east of Red River St","area_sq_mi":0.111}},{"type":"Feature","geometry":{"type":"Polygon","coordinates":[[[-97.745357,30.262888],[-97.746986,30.263601],[-97.747328,30.263563],[-97.747815,30.263683],[-97.749139,30.264257],[-97.749869,30.264366],[-97.750008,30.264132],[-97.751284,30.264457],[-97.751571,30.264565],[-97.751931,30.264795],[-97.752107,30.265065],[-97.752332,30.265056],[-97.752544,30.265206],[-97.75317,30.265433],[-97.753493,30.26547],[-97.753773,30.265597],[-97.754108,30.265647],[-97.754327,30.265745],[-97.756371,30.266361],[-97.75663,30.266479],[-97.755559,30.269113],[-97.755329,30.2692],[-97.754848,30.270275],[-97.754678,30.270443],[-97.754089,30.27159],[-97.751716,30.270677],[-97.749532,30.26995],[-97.742821,30.268071],[-97.744855,30.26258],[-97.745357,30.262888]]]},"properties":{"area_id":"dt_2nd_warehouse","name":"2nd Street / Warehouse","tier":"hub","hub":"2nd Street / Warehouse","subsection":null,"status":"approved","rule":"Downtown NPA south of W 6th St and west of Congress Ave","area_sq_mi":0.279}},{"type":"Feature","geometry":{"type":"Polygon","coordinates":[[[-97.747466,30.248245],[-97.749157,30.243575],[-97.749798,30.24195],[-97.749986,30.241382],[-97.75045,30.239024],[-97.750676,30.238559],[-97.751251,30.237671],[-97.755783,30.239889],[-97.755424,30.240443],[-97.755108,30.242178],[-97.754777,30.243258],[-97.754109,30.244955],[-97.749858,30.256541],[-97.747203,30.263577],[-97.746986,30.263601],[-97.74659,30.26345],[-97.745357,30.262888],[-97.745219,30.262765],[-97.744689,30.262493],[-97.743304,30.261516],[-97.742757,30.260854],[-97.747466,30.248245]]]},"properties":{"area_id":"soco","name":"South Congress","tier":"hub","hub":"South Congress","subsection":null,"status":"approved","rule":"S Congress Ave from the river to Oltorf St, 250 m (about 2 to 3 blocks) either side","area_sq_mi":0.532}},{"type":"Feature","geometry":{"type":"MultiPolygon","coordinates":[[[[-97.758258,30.248292],[-97.757594,30.250224],[-97.756388,30.253044],[-97.753237,30.257994],[-97.751609,30.260775],[-97.75158,30.260763],[-97.751689,30.260544],[-97.748708,30.259585],[-97.753682,30.24614],[-97.756182,30.242189],[-97.757294,30.240908],[-97.761757,30.243228],[-97.761408,30.243698],[-97.760607,30.244572],[-97.758258,30.248292]]],[[[-97.798705,30.235492],[-97.796618,30.236659],[-97.795584,30.237302],[-97.794361,30.237955],[-97.793621,30.238482],[-97.792823,30.238933],[-97.791384,30.240156],[-97.79077,30.240521],[-97.787872,30.242541],[-97.784079,30.24536],[-97.779713,30.248287],[-97.778491,30.24889],[-97.778057,30.249061],[-97.776628,30.249368],[-97.773435,30.249852],[-97.770457,30.25067],[-97.769465,30.251001],[-97.768803,30.251286],[-97.768087,30.25182],[-97.767289,30.25252],[-97.765311,30.254668],[-97.76326,30.257956],[-97.761676,30.259507],[-97.760966,30.261578],[-97.75599,30.260263],[-97.756821,30.257822],[-97.757015,30.2574],[-97.757301,30.25702],[-97.758,30.256269],[-97.758968,30.25537],[-97.761002,30.252121],[-97.763493,30.249428],[-97.764621,30.248447],[-97.765837,30.247551],[-97.767268,30.246901],[-97.768824,30.246376],[-97.772085,30.245484],[-97.776235,30.244804],[-97.776984,30.244434],[-97.77976,30.242511],[-97.780747,30.241886],[-97.78458,30.239041],[-97.787612,30.236927],[-97.788101,30.236635],[-97.789551,30.235403],[-97.79064,30.234774],[-97.791288,30.234298],[-97.792778,30.233494],[-97.793775,30.232872],[-97.795544,30.231892],[-97.796613,30.231073],[-97.797878,30.230424],[-97.798589,30.23018],[-97.799096,30.230123],[-97.79965,30.230144],[-97.799311,30.234549],[-97.800478,30.23434],[-97.799676,30.234743],[-97.798705,30.235492]]]]},"properties":{"area_id":"slamar","name":"South Lamar","tier":"hub","hub":"South Lamar","subsection":null,"status":"approved","rule":"S Lamar Blvd from Barton Springs Rd to Ben White Blvd, plus S 1st St from Riverside Dr to Oltorf St, 250 m either side","area_sq_mi":1.394}},{"type":"Feature","geometry":{"type":"Polygon","coordinates":[[[-97.717745,30.251205],[-97.718127,30.250954],[-97.71833,30.250882],[-97.71852,30.250478],[-97.7188,30.250074],[-97.719054,30.249367],[-97.719468,30.248949],[-97.719896,30.248887],[-97.720259,30.249053],[-97.720713,30.248983],[-97.720649,30.248847],[-97.7207,30.248633],[-97.721185,30.248118],[-97.721781,30.247624],[-97.72273,30.247234],[-97.723161,30.247146],[-97.724104,30.24686],[-97.725006,30.246898],[-97.725709,30.247063],[-97.727225,30.247716],[-97.727533,30.247956],[-97.728377,30.248405],[-97.728503,30.24852],[-97.728913,30.248677],[-97.729431,30.248965],[-97.730866,30.249385],[-97.731837,30.249765],[-97.732613,30.250218],[-97.733518,30.250591],[-97.734802,30.250922],[-97.735077,30.251068],[-97.735559,30.251095],[-97.736042,30.251335],[-97.735852,30.251763],[-97.73587,30.252],[-97.736287,30.253777],[-97.73645,30.254804],[-97.736808,30.255113],[-97.736962,30.255874],[-97.737168,30.257893],[-97.736946,30.25904],[-97.736652,30.260086],[-97.734953,30.264844],[-97.73032,30.263311],[-97.711116,30.256632],[-97.713258,30.251889],[-97.713413,30.251057],[-97.717745,30.251205]]]},"properties":{"area_id":"east_holly_ecc","name":"Holly / East Cesar Chavez","tier":"subsection","hub":"East Austin","subsection":"Holly / East Cesar Chavez","status":"approved","rule":"East of I-35, west of Pleasant Valley Rd, south of E 5th St to the lake","area_sq_mi":1.162}},{"type":"Feature","geometry":{"type":"Polygon","coordinates":[[[-97.734398,30.266217],[-97.734171,30.266997],[-97.73379,30.267996],[-97.727451,30.265932],[-97.724056,30.264675],[-97.721635,30.263873],[-97.71723,30.262826],[-97.710849,30.261857],[-97.708997,30.261414],[-97.709488,30.260163],[-97.711116,30.256632],[-97.73032,30.263311],[-97.734953,30.264844],[-97.734398,30.266217]]]},"properties":{"area_id":"east_6th_7th","name":"East 6th / 7th","tier":"subsection","hub":"East Austin","subsection":"East 6th / 7th","status":"approved","rule":"East of I-35, west of Pleasant Valley Rd, E 5th St to E 7th St plus 150 m north of 7th","area_sq_mi":0.397}},{"type":"Feature","geometry":{"type":"Polygon","coordinates":[[[-97.732897,30.270448],[-97.732378,30.272008],[-97.731664,30.272946],[-97.731655,30.274062],[-97.731354,30.274913],[-97.730478,30.277056],[-97.73013,30.277897],[-97.729817,30.278508],[-97.72879,30.278544],[-97.725145,30.27911],[-97.722207,30.279658],[-97.715276,30.28076],[-97.711544,30.281409],[-97.707009,30.28207],[-97.703953,30.282577],[-97.702125,30.279739],[-97.701723,30.279024],[-97.700524,30.27725],[-97.699764,30.276201],[-97.698445,30.274666],[-97.697914,30.273561],[-97.697754,30.273027],[-97.717225,30.264003],[-97.717802,30.263842],[-97.718405,30.263885],[-97.719872,30.264378],[-97.723996,30.265807],[-97.731748,30.268649],[-97.733402,30.269163],[-97.732897,30.270448]]]},"properties":{"area_id":"east_12th","name":"East 12th and north","tier":"subsection","hub":"East Austin","subsection":"East 12th and north","status":"approved","rule":"East of I-35, west of Airport Blvd, 150 m south of E 11th St north to MLK Jr Blvd","area_sq_mi":1.735}},{"type":"Feature","geometry":{"type":"Polygon","coordinates":[[[-97.701382,30.285411],[-97.701786,30.285255],[-97.704406,30.284766],[-97.709831,30.283894],[-97.713835,30.283315],[-97.721759,30.282045],[-97.725655,30.281371],[-97.727083,30.281232],[-97.727306,30.28303],[-97.726878,30.283836],[-97.726104,30.284977],[-97.722539,30.285599],[-97.714573,30.286875],[-97.710558,30.287456],[-97.705268,30.288305],[-97.703169,30.288691],[-97.70237,30.289091],[-97.701356,30.289754],[-97.699597,30.290654],[-97.697488,30.287536],[-97.699134,30.286694],[-97.70017,30.286018],[-97.701382,30.285411]]]},"properties":{"area_id":"east_manor","name":"Manor Road","tier":"subsection","hub":"East Austin","subsection":"Manor Road","status":"approved","rule":"Manor Rd from I-35 to Berkman Dr (past the Tillery St block), 200 m either side","area_sq_mi":0.439}},{"type":"Feature","geometry":{"type":"Polygon","coordinates":[[[-97.739331,30.322011],[-97.743891,30.325074],[-97.746157,30.326187],[-97.745919,30.325648],[-97.745764,30.324741],[-97.745799,30.323782],[-97.74594,30.323249],[-97.745782,30.322754],[-97.74541,30.322135],[-97.745238,30.321631],[-97.745163,30.32119],[-97.74524,30.320892],[-97.745485,30.320421],[-97.745863,30.320064],[-97.746023,30.320041],[-97.746164,30.320051],[-97.746896,30.32028],[-97.747587,30.320601],[-97.747999,30.320735],[-97.748873,30.320961],[-97.74922,30.320899],[-97.74929,30.320782],[-97.749368,30.320085],[-97.749348,30.319791],[-97.749138,30.318886],[-97.752482,30.320423],[-97.753126,30.320447],[-97.753486,30.320573],[-97.754831,30.321241],[-97.755176,30.321341],[-97.755275,30.321291],[-97.755699,30.3213],[-97.755554,30.326921],[-97.75539,30.337474],[-97.754377,30.339131],[-97.753317,30.341744],[-97.749565,30.349648],[-97.746454,30.356612],[-97.745169,30.360104],[-97.744575,30.361299],[-97.741951,30.361274],[-97.740831,30.361081],[-97.735517,30.35836],[-97.73087,30.356217],[-97.733139,30.352344],[-97.735781,30.348354],[-97.73664,30.346724],[-97.737525,30.3454],[-97.738368,30.343814],[-97.739829,30.334858],[-97.740072,30.332478],[-97.739796,30.328922],[-97.739624,30.325857],[-97.739331,30.322011]]]},"properties":{"area_id":"off_allandale","name":"Allandale","tier":"offhub_cluster","hub":null,"subsection":null,"status":"draft","rule":"City of Austin neighborhood planning area group 'ALLANDALE' minus hubs","area_sq_mi":2.354}},{"type":"Feature","geometry":{"type":"MultiPolygon","coordinates":[[[[-97.760521,30.242539],[-97.763904,30.243578],[-97.764341,30.243944],[-97.765088,30.24427],[-97.767818,30.245122],[-97.76859,30.245506],[-97.768996,30.24602],[-97.768208,30.246584],[-97.767268,30.246901],[-97.765837,30.247551],[-97.764621,30.248447],[-97.763493,30.249428],[-97.761002,30.252121],[-97.758968,30.25537],[-97.758,30.256269],[-97.757301,30.25702],[-97.757015,30.2574],[-97.756821,30.257822],[-97.75599,30.260263],[-97.757106,30.260558],[-97.754713,30.264609],[-97.753779,30.2644],[-97.747725,30.262193],[-97.748709,30.259585],[-97.751689,30.260544],[-97.75158,30.260763],[-97.751609,30.260775],[-97.753237,30.257994],[-97.756388,30.253044],[-97.757594,30.250224],[-97.758258,30.248292],[-97.760607,30.244572],[-97.761408,30.243698],[-97.761757,30.243228],[-97.759514,30.242062],[-97.760521,30.242539]]],[[[-97.756459,30.240592],[-97.757225,30.240987],[-97.756182,30.242189],[-97.753682,30.24614],[-97.752735,30.248699],[-97.754109,30.244955],[-97.754777,30.243258],[-97.755108,30.242178],[-97.755424,30.240443],[-97.755654,30.240089],[-97.756459,30.240592]]],[[[-97.753622,30.238831],[-97.753517,30.23878],[-97.753527,30.238765],[-97.753622,30.238831]]]]},"properties":{"area_id":"off_bouldin_creek","name":"Bouldin Creek","tier":"offhub_cluster","hub":null,"subsection":null,"status":"draft","rule":"City of Austin neighborhood planning area group 'BOULDIN CREEK' minus hubs","area_sq_mi":0.483}},{"type":"Feature","geometry":{"type":"Polygon","coordinates":[[[-97.729374,30.321144],[-97.730913,30.318799],[-97.731178,30.318299],[-97.732196,30.316784],[-97.735925,30.31549],[-97.736421,30.315179],[-97.736924,30.314496],[-97.737579,30.313469],[-97.741575,30.315407],[-97.739568,30.318601],[-97.739192,30.319283],[-97.739131,30.319648],[-97.739466,30.323684],[-97.739796,30.328922],[-97.740072,30.332478],[-97.739829,30.334858],[-97.738368,30.343814],[-97.737525,30.3454],[-97.736857,30.345054],[-97.734984,30.344334],[-97.733676,30.343669],[-97.732338,30.343416],[-97.723759,30.339276],[-97.722814,30.338588],[-97.722337,30.338075],[-97.71962,30.336681],[-97.712712,30.347585],[-97.710328,30.346422],[-97.709609,30.345951],[-97.706135,30.344288],[-97.705306,30.343817],[-97.704759,30.34341],[-97.703926,30.342683],[-97.703805,30.342548],[-97.705647,30.339748],[-97.707593,30.336658],[-97.707712,30.336608],[-97.707858,30.336212],[-97.707732,30.335426],[-97.707753,30.335132],[-97.70806,30.334676],[-97.707828,30.334575],[-97.708524,30.333228],[-97.70948,30.33166],[-97.709391,30.331081],[-97.708609,30.331161],[-97.707954,30.331032],[-97.706211,30.330012],[-97.706337,30.329539],[-97.710731,30.322533],[-97.711011,30.322151],[-97.71151,30.320887],[-97.713955,30.320376],[-97.714834,30.320482],[-97.715381,30.320427],[-97.719565,30.322427],[-97.720441,30.322728],[-97.721153,30.322875],[-97.721995,30.322955],[-97.722736,30.323113],[-97.723838,30.323507],[-97.724892,30.324161],[-97.725595,30.324998],[-97.725948,30.325547],[-97.72626,30.325864],[-97.726627,30.325506],[-97.729374,30.321144]]]},"properties":{"area_id":"off_brentwood_highland","name":"Brentwood/Highland","tier":"offhub_cluster","hub":null,"subsection":null,"status":"draft","rule":"City of Austin neighborhood planning area group 'Brentwood/Highland Combined NPA' minus hubs","area_sq_mi":2.927}},{"type":"Feature","geometry":{"type":"MultiPolygon","coordinates":[[[[-97.713547,30.265308],[-97.713251,30.264431],[-97.713249,30.264059],[-97.713376,30.263242],[-97.713972,30.262331],[-97.71723,30.262826],[-97.721635,30.263873],[-97.724056,30.264675],[-97.727451,30.265932],[-97.73379,30.267996],[-97.73417,30.266999],[-97.733402,30.269163],[-97.731748,30.268649],[-97.723996,30.265807],[-97.718405,30.263885],[-97.717802,30.263842],[-97.717225,30.264003],[-97.713753,30.265612],[-97.713547,30.265308]]],[[[-97.722215,30.279657],[-97.72328,30.279458],[-97.723186,30.27948],[-97.722215,30.279657]]],[[[-97.728488,30.278611],[-97.725127,30.279113],[-97.72879,30.278544],[-97.729814,30.278514],[-97.728488,30.278611]]],[[[-97.732437,30.271854],[-97.731655,30.274062],[-97.731664,30.272946],[-97.732378,30.272008],[-97.732897,30.270448],[-97.733398,30.269172],[-97.732437,30.271854]]]]},"properties":{"area_id":"off_central_east_austin","name":"Central East Austin","tier":"offhub_cluster","hub":null,"subsection":null,"status":"draft","rule":"City of Austin neighborhood planning area group 'CENTRAL EAST AUSTIN' minus hubs","area_sq_mi":0.114}},{"type":"Feature","geometry":{"type":"Polygon","coordinates":[[[-97.752903,30.284658],[-97.753181,30.28558],[-97.753098,30.287096],[-97.75284,30.288546],[-97.751855,30.290143],[-97.751518,30.290601],[-97.750496,30.29159],[-97.747492,30.292212],[-97.747056,30.292849],[-97.74706,30.293264],[-97.747253,30.293824],[-97.748968,30.296403],[-97.748909,30.297254],[-97.748474,30.298205],[-97.747045,30.299073],[-97.746215,30.300266],[-97.745704,30.301153],[-97.745435,30.301491],[-97.744225,30.303477],[-97.743024,30.305254],[-97.738154,30.302746],[-97.732617,30.300109],[-97.729786,30.298712],[-97.728716,30.300492],[-97.727057,30.303044],[-97.7268,30.303528],[-97.724487,30.307098],[-97.723676,30.306768],[-97.72215,30.306],[-97.720945,30.305488],[-97.71778,30.303955],[-97.716774,30.303582],[-97.71598,30.303605],[-97.715765,30.30233],[-97.715377,30.301651],[-97.716507,30.299892],[-97.718308,30.296523],[-97.719726,30.294952],[-97.724913,30.286429],[-97.725982,30.286866],[-97.726733,30.287269],[-97.728635,30.2881],[-97.72971,30.288961],[-97.730284,30.289209],[-97.730888,30.28932],[-97.733263,30.28925],[-97.734697,30.289315],[-97.734564,30.289736],[-97.734538,30.29113],[-97.735689,30.292193],[-97.736013,30.293168],[-97.736545,30.292661],[-97.736611,30.291659],[-97.741117,30.292039],[-97.741169,30.29223],[-97.741902,30.283801],[-97.738988,30.283613],[-97.739251,30.280986],[-97.741659,30.281664],[-97.742071,30.281843],[-97.749913,30.283908],[-97.750113,30.283934],[-97.751953,30.283691],[-97.752903,30.284658]]]},"properties":{"area_id":"off_central_austin","name":"Central Austin","tier":"offhub_cluster","hub":null,"subsection":null,"status":"draft","rule":"City of Austin neighborhood planning area group 'Central Austin Combined NPA' minus hubs","area_sq_mi":1.945}},{"type":"Feature","geometry":{"type":"Polygon","coordinates":[[[-97.760425,30.290857],[-97.761112,30.289716],[-97.764414,30.284977],[-97.7653,30.283461],[-97.765828,30.282706],[-97.767429,30.279969],[-97.768939,30.2777],[-97.769212,30.277213],[-97.769406,30.277024],[-97.770702,30.27507],[-97.771226,30.274184],[-97.773262,30.275088],[-97.776712,30.277529],[-97.779847,30.280032],[-97.7829,30.282736],[-97.785459,30.286379],[-97.786329,30.288904],[-97.7866,30.29171],[-97.786633,30.295146],[-97.78562,30.29804],[-97.784315,30.300116],[-97.781974,30.302983],[-97.779649,30.305242],[-97.778522,30.306507],[-97.776689,30.311269],[-97.776351,30.313181],[-97.774719,30.312868],[-97.77418,30.312651],[-97.773841,30.312603],[-97.772934,30.312745],[-97.772285,30.312913],[-97.771607,30.313169],[-97.770138,30.314125],[-97.769048,30.314535],[-97.767575,30.313793],[-97.76418,30.311855],[-97.76313,30.310805],[-97.762682,30.310485],[-97.761632,30.309955],[-97.759334,30.309381],[-97.757816,30.309073],[-97.754508,30.308533],[-97.751625,30.307812],[-97.750525,30.30705],[-97.748583,30.307322],[-97.747546,30.307103],[-97.743024,30.305254],[-97.744225,30.303477],[-97.745435,30.301491],[-97.745704,30.301153],[-97.746215,30.300266],[-97.747045,30.299073],[-97.748474,30.298205],[-97.748909,30.297254],[-97.748968,30.296403],[-97.747253,30.293824],[-97.74706,30.293264],[-97.747056,30.292849],[-97.747492,30.292212],[-97.750496,30.29159],[-97.751518,30.290601],[-97.751855,30.290143],[-97.75284,30.288546],[-97.754655,30.289047],[-97.755367,30.289014],[-97.755703,30.289089],[-97.756267,30.289467],[-97.756418,30.289779],[-97.756925,30.290505],[-97.75726,30.290835],[-97.757513,30.291009],[-97.758829,30.291659],[-97.759846,30.292087],[-97.760425,30.290857]]]},"properties":{"area_id":"off_central_west_austin","name":"Central West Austin","tier":"offhub_cluster","hub":null,"subsection":null,"status":"draft","rule":"City of Austin neighborhood planning area group 'Central West Austin Combined NPA' minus hubs","area_sq_mi":4.015}},{"type":"Feature","geometry":{"type":"Polygon","coordinates":[[[-97.71962,30.336681],[-97.722337,30.338075],[-97.722814,30.338588],[-97.723759,30.339276],[-97.732338,30.343416],[-97.733676,30.343669],[-97.734984,30.344334],[-97.736857,30.345054],[-97.737525,30.3454],[-97.73664,30.346724],[-97.735781,30.348354],[-97.733139,30.352344],[-97.73087,30.356217],[-97.728609,30.364532],[-97.726421,30.373118],[-97.721668,30.37097],[-97.720389,30.369816],[-97.71982,30.369117],[-97.719378,30.368437],[-97.719055,30.367746],[-97.718561,30.366245],[-97.716823,30.360417],[-97.714114,30.351162],[-97.71392,30.350872],[-97.712712,30.347585],[-97.71962,30.336681]]]},"properties":{"area_id":"off_crestview_wooten","name":"Crestview/Wooten","tier":"offhub_cluster","hub":null,"subsection":null,"status":"draft","rule":"City of Austin neighborhood planning area group 'Crestview/Wooten Combined NPA' minus hubs","area_sq_mi":1.973}},{"type":"Feature","geometry":{"type":"Polygon","coordinates":[[[-97.756372,30.235514],[-97.757126,30.234517],[-97.758468,30.232467],[-97.761198,30.228064],[-97.763064,30.224251],[-97.764012,30.222779],[-97.767309,30.225012],[-97.769513,30.226385],[-97.769223,30.226926],[-97.767645,30.229455],[-97.764852,30.233827],[-97.764512,30.23445],[-97.763493,30.235981],[-97.76322,30.236473],[-97.75963,30.242117],[-97.757294,30.240908],[-97.757225,30.240987],[-97.756459,30.240592],[-97.755654,30.240089],[-97.755783,30.239889],[-97.753527,30.238765],[-97.756372,30.235514]]]},"properties":{"area_id":"off_dawson","name":"Dawson","tier":"offhub_cluster","hub":null,"subsection":null,"status":"draft","rule":"City of Austin neighborhood planning area group 'DAWSON' minus hubs","area_sq_mi":0.492}},{"type":"Feature","geometry":{"type":"MultiPolygon","coordinates":[[[[-97.698445,30.274666],[-97.699765,30.276202],[-97.700522,30.277247],[-97.70071,30.277634],[-97.701156,30.278185],[-97.701723,30.279024],[-97.702125,30.279739],[-97.705312,30.28462],[-97.701786,30.285255],[-97.701382,30.285411],[-97.70017,30.286018],[-97.699134,30.286694],[-97.697488,30.287536],[-97.698545,30.289098],[-97.696643,30.289902],[-97.695754,30.29014],[-97.694227,30.290023],[-97.69372,30.289894],[-97.692554,30.289496],[-97.691732,30.289427],[-97.690741,30.289781],[-97.690085,30.290108],[-97.689639,30.290643],[-97.689285,30.291387],[-97.689221,30.291776],[-97.689282,30.292539],[-97.68921,30.294625],[-97.688871,30.295336],[-97.688009,30.296138],[-97.687063,30.298192],[-97.685916,30.300157],[-97.685142,30.30103],[-97.68132,30.304589],[-97.679512,30.307404],[-97.67844,30.307918],[-97.676136,30.308079],[-97.673042,30.30799],[-97.669044,30.308983],[-97.667946,30.30959],[-97.66707,30.306494],[-97.667862,30.306073],[-97.667951,30.305192],[-97.667216,30.304586],[-97.666068,30.301866],[-97.665747,30.301582],[-97.665648,30.301222],[-97.665646,30.300785],[-97.665566,30.300522],[-97.665039,30.300181],[-97.664776,30.299411],[-97.664519,30.298836],[-97.664077,30.298461],[-97.664251,30.297838],[-97.663594,30.297411],[-97.662636,30.296575],[-97.661392,30.300809],[-97.661105,30.302651],[-97.659204,30.302722],[-97.656157,30.303172],[-97.655482,30.30323],[-97.654667,30.3031],[-97.65395,30.302903],[-97.652535,30.302252],[-97.653282,30.301355],[-97.654466,30.298745],[-97.656136,30.289544],[-97.656289,30.287787],[-97.655763,30.284032],[-97.655753,30.282921],[-97.655823,30.282185],[-97.65607,30.281261],[-97.656748,30.27946],[-97.661626,30.267336],[-97.662261,30.266208],[-97.66287,30.265547],[-97.663962,30.264799],[-97.664586,30.264471],[-97.666225,30.263939],[-97.67031,30.263576],[-97.672697,30.263702],[-97.680064,30.265522],[-97.682072,30.265624],[-97.683064,30.26546],[-97.683238,30.265587],[-97.694589,30.26254],[-97.697877,30.273436],[-97.698445,30.274666]]],[[[-97.707115,30.28921],[-97.705361,30.289193],[-97.703829,30.28857],[-97.706896,30.288044],[-97.707115,30.28921]]]]},"properties":{"area_id":"off_east_mlk","name":"East MLK","tier":"offhub_cluster","hub":null,"subsection":null,"status":"draft","rule":"City of Austin neighborhood planning area group 'East MLK Combined NPA' minus hubs","area_sq_mi":6.286}},{"type":"Feature","geometry":{"type":"Polygon","coordinates":[[[-97.712291,30.212223],[-97.720462,30.213408],[-97.720504,30.213249],[-97.723054,30.213573],[-97.727962,30.214328],[-97.728336,30.214349],[-97.732549,30.215095],[-97.733308,30.215289],[-97.738814,30.216094],[-97.739733,30.216107],[-97.743999,30.216463],[-97.745136,30.216466],[-97.746305,30.216408],[-97.749396,30.215936],[-97.751047,30.215816],[-97.751823,30.215804],[-97.741272,30.23377],[-97.734861,30.244532],[-97.735771,30.249781],[-97.735004,30.24951],[-97.734811,30.249261],[-97.734003,30.249028],[-97.732555,30.248421],[-97.729218,30.246736],[-97.727079,30.245856],[-97.724637,30.24541],[-97.723094,30.245701],[-97.7223,30.246155],[-97.720527,30.246383],[-97.722189,30.245781],[-97.722759,30.245001],[-97.722465,30.244571],[-97.719624,30.243719],[-97.719258,30.243711],[-97.718473,30.243431],[-97.716774,30.24324],[-97.715749,30.244371],[-97.715152,30.245508],[-97.714626,30.246317],[-97.713908,30.247232],[-97.713698,30.248048],[-97.713538,30.249301],[-97.705711,30.249961],[-97.70427,30.249714],[-97.702444,30.249676],[-97.700962,30.248606],[-97.70049,30.24745],[-97.699641,30.246282],[-97.698519,30.245822],[-97.697156,30.245029],[-97.69572,30.244563],[-97.694649,30.244595],[-97.69308,30.244398],[-97.692602,30.243921],[-97.692866,30.243668],[-97.693446,30.243416],[-97.694282,30.243281],[-97.69465,30.243069],[-97.694967,30.242636],[-97.69523,30.242693],[-97.695822,30.242576],[-97.695345,30.241997],[-97.696015,30.241584],[-97.696875,30.241569],[-97.69888,30.24119],[-97.699402,30.241022],[-97.699849,30.240736],[-97.700095,30.240494],[-97.700356,30.24007],[-97.700493,30.239603],[-97.700644,30.238511],[-97.700719,30.238334],[-97.700909,30.238088],[-97.701203,30.237775],[-97.701438,30.237735],[-97.702865,30.237204],[-97.703553,30.236486],[-97.704035,30.235792],[-97.706226,30.232031],[-97.706245,30.231239],[-97.706024,30.230184],[-97.70619,30.22967],[-97.706342,30.229274],[-97.707278,30.227872],[-97.707671,30.227143],[-97.707923,30.226944],[-97.708551,30.225582],[-97.708688,30.22501],[-97.708663,30.224399],[-97.708449,30.2238],[-97.707783,30.222288],[-97.706924,30.219811],[-97.709657,30.215324],[-97.709813,30.215184],[-97.710434,30.215078],[-97.712291,30.212223]]]},"properties":{"area_id":"off_east_riverside_oltorf","name":"East Riverside/Oltorf","tier":"offhub_cluster","hub":null,"subsection":null,"status":"draft","rule":"City of Austin neighborhood planning area group 'East Riverside/Oltorf Combined NPA' minus hubs","area_sq_mi":5.172}},{"type":"Feature","geometry":{"type":"MultiPolygon","coordinates":[[[[-97.683238,30.265587],[-97.683064,30.26546],[-97.682072,30.265624],[-97.680064,30.265522],[-97.672552,30.263694],[-97.675831,30.258599],[-97.676945,30.256945],[-97.677672,30.255747],[-97.678806,30.254189],[-97.680366,30.252464],[-97.681117,30.252045],[-97.683089,30.251164],[-97.684866,30.250623],[-97.68863,30.249972],[-97.689656,30.249735],[-97.689895,30.249561],[-97.69026,30.249194],[-97.690757,30.248363],[-97.690853,30.248007],[-97.691049,30.247615],[-97.690956,30.247347],[-97.690946,30.246312],[-97.691439,30.246182],[-97.693397,30.246011],[-97.695197,30.245693],[-97.695189,30.245976],[-97.694937,30.246254],[-97.694846,30.246605],[-97.694988,30.247386],[-97.695556,30.247469],[-97.696206,30.247482],[-97.69653,30.247558],[-97.696602,30.247914],[-97.696588,30.248409],[-97.697065,30.248842],[-97.69771,30.249067],[-97.698198,30.249077],[-97.698151,30.247806],[-97.697279,30.246938],[-97.698018,30.246741],[-97.698832,30.246758],[-97.699785,30.247625],[-97.699831,30.248899],[-97.703655,30.250556],[-97.713413,30.251057],[-97.713258,30.251889],[-97.709488,30.260163],[-97.708997,30.261414],[-97.710849,30.261857],[-97.713972,30.262331],[-97.713376,30.263242],[-97.71335,30.263409],[-97.711551,30.264206],[-97.709048,30.265392],[-97.707094,30.268698],[-97.697754,30.273027],[-97.697877,30.273436],[-97.694589,30.26254],[-97.683238,30.265587]]],[[[-97.713434,30.251058],[-97.713417,30.251057],[-97.713434,30.251057],[-97.713434,30.251058]]]]},"properties":{"area_id":"off_govalle_johnston_terrace","name":"Govalle/Johnston Terrace","tier":"offhub_cluster","hub":null,"subsection":null,"status":"draft","rule":"City of Austin neighborhood planning area group 'Govalle/Johnston Terrace Combined NPA' minus hubs","area_sq_mi":2.444}},{"type":"Feature","geometry":{"type":"Polygon","coordinates":[[[-97.751823,30.215804],[-97.752999,30.216028],[-97.753978,30.216714],[-97.755829,30.218605],[-97.757425,30.219602],[-97.760059,30.220802],[-97.764012,30.222779],[-97.763064,30.224251],[-97.761198,30.228064],[-97.758468,30.232467],[-97.757126,30.234517],[-97.756372,30.235514],[-97.753517,30.23878],[-97.751251,30.237671],[-97.750676,30.238559],[-97.75045,30.239024],[-97.749986,30.241382],[-97.749798,30.24195],[-97.749157,30.243575],[-97.747466,30.248245],[-97.743415,30.259091],[-97.743285,30.258831],[-97.742987,30.257835],[-97.74279,30.256475],[-97.742454,30.254757],[-97.740911,30.252732],[-97.74101,30.252267],[-97.740775,30.251902],[-97.74048,30.252391],[-97.739023,30.251192],[-97.73647,30.250046],[-97.735771,30.249781],[-97.734861,30.244532],[-97.742741,30.231256],[-97.751823,30.215804]]]},"properties":{"area_id":"off_greater_south_river_city","name":"Greater South River City","tier":"offhub_cluster","hub":null,"subsection":null,"status":"draft","rule":"City of Austin neighborhood planning area group 'Greater South River City Combined NPA' minus hubs","area_sq_mi":2.014}},{"type":"Feature","geometry":{"type":"Polygon","coordinates":[[[-97.72215,30.306],[-97.723676,30.306768],[-97.724487,30.307098],[-97.7268,30.303528],[-97.727057,30.303044],[-97.728716,30.300492],[-97.729786,30.298712],[-97.732617,30.300109],[-97.738154,30.302746],[-97.732983,30.310849],[-97.731118,30.313685],[-97.726377,30.311402],[-97.723394,30.31594],[-97.716451,30.312495],[-97.715725,30.312181],[-97.715347,30.312074],[-97.716016,30.310448],[-97.71963,30.304862],[-97.72215,30.306]]]},"properties":{"area_id":"off_hyde_park","name":"Hyde Park","tier":"offhub_cluster","hub":null,"subsection":null,"status":"draft","rule":"City of Austin neighborhood planning area group 'HYDE PARK' minus hubs","area_sq_mi":0.756}},{"type":"Feature","geometry":{"type":"Polygon","coordinates":[[[-97.677741,30.344569],[-97.678582,30.343572],[-97.67935,30.342941],[-97.680712,30.341325],[-97.682385,30.338818],[-97.686308,30.332581],[-97.700142,30.339181],[-97.688019,30.358225],[-97.675667,30.377011],[-97.669946,30.374131],[-97.667982,30.373444],[-97.665812,30.372519],[-97.667945,30.36918],[-97.668678,30.367831],[-97.668814,30.367333],[-97.66876,30.366059],[-97.668469,30.36292],[-97.668616,30.36248],[-97.668884,30.361971],[-97.670932,30.358859],[-97.675062,30.352278],[-97.676013,30.350856],[-97.677378,30.345675],[-97.677741,30.344569]]]},"properties":{"area_id":"off_heritage_hills_windsor_hills","name":"Heritage Hills Windsor Hills","tier":"offhub_cluster","hub":null,"subsection":null,"status":"draft","rule":"City of Austin neighborhood planning area group 'Heritage Hills Windsor Hills Combined NPA' minus hubs","area_sq_mi":2.592}},{"type":"Feature","geometry":{"type":"Polygon","coordinates":[[[-97.710434,30.215078],[-97.709813,30.215184],[-97.709657,30.215324],[-97.706924,30.219811],[-97.707783,30.222288],[-97.708449,30.2238],[-97.708663,30.224399],[-97.708688,30.22501],[-97.708551,30.225582],[-97.707923,30.226944],[-97.707671,30.227143],[-97.707278,30.227872],[-97.706342,30.229274],[-97.70619,30.22967],[-97.706024,30.230184],[-97.706245,30.231239],[-97.706226,30.232031],[-97.704035,30.235792],[-97.703553,30.236486],[-97.702865,30.237204],[-97.701438,30.237735],[-97.701203,30.237775],[-97.700909,30.238088],[-97.700719,30.238334],[-97.700644,30.238511],[-97.700462,30.239762],[-97.700299,30.240193],[-97.699976,30.240618],[-97.699561,30.24094],[-97.699233,30.24109],[-97.69888,30.24119],[-97.696875,30.241569],[-97.696015,30.241584],[-97.695345,30.241997],[-97.695822,30.242576],[-97.69523,30.242693],[-97.694967,30.242636],[-97.69465,30.243069],[-97.694282,30.243281],[-97.693446,30.243416],[-97.692866,30.243668],[-97.692602,30.243921],[-97.692366,30.243913],[-97.691643,30.244258],[-97.690507,30.244034],[-97.690261,30.242585],[-97.689135,30.241077],[-97.686178,30.236112],[-97.684328,30.233133],[-97.684505,30.232832],[-97.683854,30.231421],[-97.683675,30.230763],[-97.683726,30.230252],[-97.683574,30.230186],[-97.683551,30.229996],[-97.683472,30.226782],[-97.68316,30.225529],[-97.68344,30.22452],[-97.683787,30.224456],[-97.686598,30.220812],[-97.686458,30.220479],[-97.689547,30.218686],[-97.690482,30.218362],[-97.691251,30.218039],[-97.700749,30.214841],[-97.7083,30.212416],[-97.709077,30.21222],[-97.709405,30.212315],[-97.709752,30.212105],[-97.710233,30.212021],[-97.711597,30.211978],[-97.712394,30.212038],[-97.710434,30.215078]]]},"properties":{"area_id":"off_montopolis","name":"Montopolis","tier":"offhub_cluster","hub":null,"subsection":null,"status":"draft","rule":"City of Austin neighborhood planning area group 'MONTOPOLIS' minus hubs","area_sq_mi":2.213}},{"type":"Feature","geometry":{"type":"Polygon","coordinates":[[[-97.689761,30.375897],[-97.691163,30.373516],[-97.699686,30.358259],[-97.700395,30.357278],[-97.702695,30.355502],[-97.704076,30.354529],[-97.707277,30.352117],[-97.709322,30.350734],[-97.710426,30.349879],[-97.711621,30.348781],[-97.711966,30.348522],[-97.712712,30.347585],[-97.71392,30.350872],[-97.714114,30.351162],[-97.716823,30.360417],[-97.718561,30.366245],[-97.719055,30.367746],[-97.719378,30.368437],[-97.71982,30.369117],[-97.720389,30.369816],[-97.721668,30.37097],[-97.721177,30.371898],[-97.721297,30.372401],[-97.721717,30.373421],[-97.721777,30.373868],[-97.72158,30.374403],[-97.721387,30.374749],[-97.720166,30.375202],[-97.71887,30.375289],[-97.71812,30.3757],[-97.717296,30.376668],[-97.716846,30.377629],[-97.716462,30.379756],[-97.715521,30.38109],[-97.714872,30.381583],[-97.714666,30.381812],[-97.71114,30.38712],[-97.710771,30.387871],[-97.710655,30.38824],[-97.710376,30.388738],[-97.698635,30.38303],[-97.697908,30.382718],[-97.695931,30.382677],[-97.694792,30.382706],[-97.694118,30.382667],[-97.687715,30.379554],[-97.689761,30.375897]]]},"properties":{"area_id":"off_north_austin_civic_association","name":"North Austin Civic Association","tier":"offhub_cluster","hub":null,"subsection":null,"status":"draft","rule":"City of Austin neighborhood planning area group 'NORTH AUSTIN CIVIC ASSOCIATION' minus hubs","area_sq_mi":3.058}},{"type":"Feature","geometry":{"type":"Polygon","coordinates":[[[-97.716016,30.310448],[-97.715347,30.312074],[-97.715725,30.312181],[-97.716451,30.312495],[-97.723365,30.315934],[-97.725391,30.316319],[-97.730913,30.318799],[-97.729374,30.321144],[-97.728774,30.322155],[-97.726627,30.325506],[-97.72626,30.325864],[-97.725948,30.325547],[-97.725595,30.324998],[-97.724892,30.324161],[-97.723838,30.323507],[-97.722736,30.323113],[-97.721995,30.322955],[-97.721153,30.322875],[-97.720441,30.322728],[-97.719565,30.322427],[-97.715381,30.320427],[-97.714834,30.320482],[-97.713955,30.320376],[-97.71151,30.320887],[-97.70891,30.321555],[-97.708568,30.321685],[-97.706932,30.322117],[-97.706568,30.322249],[-97.70673,30.321639],[-97.70691,30.321297],[-97.707114,30.320729],[-97.707175,30.319281],[-97.707962,30.314852],[-97.70851,30.312715],[-97.709886,30.310062],[-97.715377,30.301651],[-97.715765,30.30233],[-97.71598,30.303605],[-97.716774,30.303582],[-97.71778,30.303955],[-97.71963,30.304862],[-97.716016,30.310448]]]},"properties":{"area_id":"off_north_loop","name":"North Loop","tier":"offhub_cluster","hub":null,"subsection":null,"status":"draft","rule":"City of Austin neighborhood planning area group 'NORTH LOOP' minus hubs","area_sq_mi":0.957}},{"type":"Feature","geometry":{"type":"Polygon","coordinates":[[[-97.728609,30.364532],[-97.73087,30.356217],[-97.735517,30.35836],[-97.740831,30.361081],[-97.741951,30.361274],[-97.744575,30.361299],[-97.741342,30.371551],[-97.739328,30.37651],[-97.738131,30.378441],[-97.737708,30.379398],[-97.737229,30.379116],[-97.736354,30.378405],[-97.735271,30.378001],[-97.734661,30.377554],[-97.732803,30.376419],[-97.726421,30.373118],[-97.728609,30.364532]]]},"properties":{"area_id":"off_north_shoal_creek","name":"North Shoal Creek","tier":"offhub_cluster","hub":null,"subsection":null,"status":"draft","rule":"City of Austin neighborhood planning area group 'NORTH SHOAL CREEK' minus hubs","area_sq_mi":1.023}},{"type":"Feature","geometry":{"type":"Polygon","coordinates":[[[-97.738466,30.380849],[-97.739119,30.381245],[-97.740859,30.381558],[-97.745664,30.390555],[-97.746144,30.39192],[-97.746494,30.392621],[-97.746605,30.394009],[-97.745998,30.400361],[-97.741737,30.400187],[-97.732661,30.39546],[-97.731326,30.397828],[-97.730642,30.399236],[-97.728485,30.401992],[-97.726788,30.40399],[-97.719972,30.407617],[-97.718085,30.407933],[-97.716525,30.408105],[-97.711648,30.40943],[-97.711381,30.409538],[-97.710778,30.409333],[-97.710114,30.409319],[-97.71,30.409427],[-97.710004,30.409941],[-97.709191,30.409988],[-97.708771,30.409132],[-97.708737,30.408378],[-97.70907,30.40765],[-97.709081,30.406578],[-97.708929,30.40603],[-97.708661,30.405722],[-97.708424,30.405621],[-97.708521,30.405431],[-97.707755,30.40511],[-97.707146,30.405097],[-97.706623,30.405329],[-97.705077,30.406543],[-97.704772,30.406905],[-97.704489,30.407108],[-97.703987,30.406553],[-97.70392,30.406329],[-97.702982,30.406214],[-97.702083,30.406003],[-97.702176,30.405301],[-97.702042,30.40549],[-97.701731,30.405355],[-97.701267,30.405491],[-97.701182,30.405184],[-97.700884,30.405321],[-97.700805,30.405512],[-97.699985,30.405784],[-97.699809,30.405491],[-97.699544,30.405725],[-97.69883,30.405521],[-97.698689,30.405246],[-97.698518,30.405435],[-97.698242,30.405396],[-97.69798,30.405534],[-97.697685,30.405544],[-97.698494,30.404282],[-97.701517,30.402391],[-97.702161,30.401813],[-97.704603,30.397952],[-97.708173,30.39245],[-97.70862,30.391893],[-97.710655,30.38824],[-97.710771,30.387871],[-97.71114,30.38712],[-97.714666,30.381812],[-97.714872,30.381583],[-97.715521,30.38109],[-97.716462,30.379756],[-97.716846,30.377629],[-97.717296,30.376668],[-97.71812,30.3757],[-97.71887,30.375289],[-97.720166,30.375202],[-97.721387,30.374749],[-97.72158,30.374403],[-97.721777,30.373868],[-97.721717,30.373421],[-97.721297,30.372401],[-97.721177,30.371898],[-97.721668,30.37097],[-97.726421,30.373118],[-97.732803,30.376419],[-97.734661,30.377554],[-97.735271,30.378001],[-97.736354,30.378405],[-97.737229,30.379116],[-97.738299,30.379713],[-97.738122,30.380273],[-97.738466,30.380849]]]},"properties":{"area_id":"off_north_burnet_gateway","name":"North Burnet/Gateway","tier":"offhub_cluster","hub":null,"subsection":null,"status":"draft","rule":"City of Austin neighborhood planning area group 'North Burnet/Gateway Combined NPA' minus hubs","area_sq_mi":3.963}},{"type":"Feature","geometry":{"type":"Polygon","coordinates":[[[-97.700142,30.339181],[-97.700757,30.339383],[-97.701568,30.340074],[-97.703926,30.342683],[-97.704759,30.34341],[-97.705306,30.343817],[-97.70705,30.344752],[-97.709609,30.345951],[-97.710328,30.346422],[-97.712712,30.347585],[-97.711966,30.348522],[-97.711621,30.348781],[-97.710426,30.349879],[-97.709322,30.350734],[-97.707277,30.352117],[-97.704076,30.354529],[-97.702695,30.355502],[-97.700395,30.357278],[-97.699686,30.358259],[-97.691163,30.373516],[-97.689761,30.375897],[-97.686415,30.381837],[-97.683901,30.380476],[-97.679434,30.378219],[-97.677376,30.377319],[-97.676647,30.377348],[-97.675667,30.377011],[-97.688019,30.358225],[-97.700142,30.339181]]]},"properties":{"area_id":"off_north_lamar","name":"North Lamar","tier":"offhub_cluster","hub":null,"subsection":null,"status":"draft","rule":"City of Austin neighborhood planning area group 'North Lamar Combined NPA' minus hubs","area_sq_mi":2.022}},{"type":"Feature","geometry":{"type":"Polygon","coordinates":[[[-97.75114,30.282372],[-97.751379,30.282416],[-97.751113,30.282164],[-97.750997,30.282137],[-97.750788,30.281583],[-97.750643,30.280733],[-97.750687,30.280106],[-97.75078,30.279958],[-97.751619,30.280072],[-97.752704,30.280119],[-97.753747,30.280341],[-97.754948,30.281176],[-97.75654,30.282429],[-97.75908,30.28308],[-97.760326,30.283518],[-97.762573,30.285188],[-97.763744,30.285891],[-97.761112,30.289716],[-97.760425,30.290857],[-97.759846,30.292087],[-97.758829,30.291659],[-97.757513,30.291009],[-97.75726,30.290835],[-97.756925,30.290505],[-97.756418,30.289779],[-97.756267,30.289467],[-97.755703,30.289089],[-97.755367,30.289014],[-97.754655,30.289047],[-97.75284,30.288546],[-97.753098,30.287096],[-97.753181,30.28558],[-97.752903,30.284658],[-97.751953,30.283691],[-97.752268,30.28365],[-97.75114,30.282372]]]},"properties":{"area_id":"off_old_enfield","name":"Old Enfield","tier":"offhub_cluster","hub":null,"subsection":null,"status":"draft","rule":"City of Austin neighborhood planning area group 'OLD ENFIELD' minus hubs","area_sq_mi":0.325}},{"type":"Feature","geometry":{"type":"Polygon","coordinates":[[[-97.750877,30.278564],[-97.751055,30.277947],[-97.751476,30.276996],[-97.752691,30.274526],[-97.753462,30.272814],[-97.754678,30.270443],[-97.754848,30.270275],[-97.755329,30.2692],[-97.755559,30.269113],[-97.75663,30.266479],[-97.75762,30.266989],[-97.759356,30.267689],[-97.759577,30.267828],[-97.759665,30.267943],[-97.76011,30.268122],[-97.760593,30.268421],[-97.762229,30.269133],[-97.762334,30.269256],[-97.762769,30.269158],[-97.764641,30.269737],[-97.76532,30.269858],[-97.766262,30.270405],[-97.766316,30.270557],[-97.767293,30.271066],[-97.767706,30.271162],[-97.767685,30.271379],[-97.769219,30.272144],[-97.769491,30.272518],[-97.769316,30.273202],[-97.769344,30.273382],[-97.769638,30.273489],[-97.769941,30.273465],[-97.769911,30.273646],[-97.770102,30.273664],[-97.770205,30.273528],[-97.770391,30.273664],[-97.770478,30.273856],[-97.771105,30.274055],[-97.771226,30.274184],[-97.770702,30.27507],[-97.769406,30.277024],[-97.769212,30.277213],[-97.768939,30.2777],[-97.767429,30.279969],[-97.765828,30.282706],[-97.7653,30.283461],[-97.764414,30.284977],[-97.763744,30.285891],[-97.762573,30.285188],[-97.760326,30.283518],[-97.75908,30.28308],[-97.75654,30.282429],[-97.754948,30.281176],[-97.753747,30.280341],[-97.752704,30.280119],[-97.751619,30.280072],[-97.75078,30.279958],[-97.750877,30.278564]]]},"properties":{"area_id":"off_old_west_austin","name":"Old West Austin","tier":"offhub_cluster","hub":null,"subsection":null,"status":"draft","rule":"City of Austin neighborhood planning area group 'OLD WEST AUSTIN' minus hubs","area_sq_mi":0.919}},{"type":"Feature","geometry":{"type":"Polygon","coordinates":[[[-97.858779,30.225146],[-97.859292,30.22512],[-97.859794,30.225019],[-97.861751,30.224356],[-97.862151,30.224119],[-97.862657,30.223656],[-97.863018,30.223162],[-97.866591,30.224845],[-97.8729,30.215107],[-97.878913,30.218041],[-97.881692,30.213653],[-97.89075,30.217841],[-97.891539,30.217983],[-97.892209,30.217976],[-97.892922,30.21783],[-97.893662,30.217559],[-97.894319,30.218325],[-97.894696,30.217322],[-97.898889,30.210634],[-97.899227,30.21025],[-97.899776,30.209831],[-97.900894,30.209399],[-97.90142,30.209318],[-97.903133,30.209309],[-97.903653,30.209894],[-97.904031,30.210102],[-97.904426,30.210239],[-97.905672,30.210292],[-97.906201,30.210404],[-97.906392,30.210724],[-97.906419,30.210969],[-97.906635,30.211667],[-97.908378,30.212423],[-97.90887,30.212691],[-97.909309,30.213076],[-97.910447,30.213458],[-97.910947,30.214045],[-97.91147,30.215064],[-97.911926,30.215463],[-97.911973,30.215566],[-97.911936,30.215708],[-97.912142,30.216133],[-97.912539,30.216847],[-97.912718,30.217037],[-97.913552,30.217559],[-97.91411,30.21774],[-97.914995,30.218164],[-97.915353,30.218413],[-97.915686,30.218683],[-97.915964,30.219029],[-97.916365,30.219416],[-97.917168,30.219894],[-97.917193,30.220213],[-97.917287,30.220473],[-97.917385,30.220519],[-97.917416,30.220622],[-97.91763,30.220725],[-97.917922,30.221005],[-97.918251,30.221141],[-97.918452,30.221565],[-97.918234,30.221806],[-97.918055,30.222309],[-97.917952,30.222463],[-97.917702,30.222475],[-97.917683,30.222596],[-97.917677,30.222805],[-97.917758,30.222922],[-97.918267,30.223149],[-97.918306,30.223202],[-97.913878,30.229785],[-97.912816,30.230081],[-97.912508,30.230411],[-97.910056,30.234473],[-97.911075,30.234503],[-97.911098,30.234826],[-97.911218,30.235111],[-97.91156,30.235343],[-97.913528,30.235829],[-97.914257,30.236082],[-97.914812,30.23637],[-97.917915,30.238398],[-97.92582,30.245427],[-97.926105,30.245634],[-97.927256,30.246241],[-97.926438,30.246547],[-97.924285,30.247148],[-97.923703,30.247489],[-97.921366,30.249675],[-97.919034,30.252038],[-97.915374,30.255926],[-97.913134,30.258401],[-97.912881,30.25855],[-97.909754,30.259871],[-97.90931,30.259934],[-97.903248,30.26051],[-97.902812,30.260477],[-97.901759,30.260201],[-97.901035,30.260069],[-97.900486,30.260023],[-97.898646,30.262747],[-97.893432,30.260197],[-97.89124,30.263675],[-97.89032,30.262913],[-97.889968,30.262697],[-97.889293,30.262379],[-97.888657,30.262144],[-97.886907,30.261841],[-97.886178,30.261665],[-97.885319,30.261307],[-97.884936,30.261083],[-97.884555,30.260798],[-97.883868,30.260108],[-97.882454,30.258191],[-97.881943,30.257725],[-97.881502,30.257414],[-97.8807,30.25703],[-97.880136,30.256843],[-97.879177,30.256699],[-97.876828,30.256791],[-97.871176,30.257145],[-97.870683,30.257149],[-97.86973,30.257062],[-97.868727,30.256817],[-97.867981,30.256519],[-97.86702,30.255932],[-97.866471,30.255462],[-97.864352,30.253457],[-97.863785,30.253053],[-97.863277,30.252782],[-97.862221,30.252409],[-97.861673,30.2523],[-97.858954,30.251928],[-97.857386,30.251439],[-97.854875,30.250491],[-97.852849,30.249638],[-97.849589,30.248073],[-97.845831,30.253707],[-97.84601,30.253872],[-97.849101,30.255338],[-97.846357,30.259487],[-97.846008,30.260151],[-97.845624,30.261593],[-97.844561,30.2633],[-97.836831,30.27516],[-97.835517,30.274667],[-97.834084,30.273995],[-97.833411,30.273328],[-97.832302,30.271966],[-97.831589,30.271265],[-97.831274,30.270659],[-97.830643,30.269984],[-97.828337,30.26989],[-97.826493,30.269988],[-97.825122,30.269799],[-97.824396,30.268894],[-97.823816,30.267612],[-97.823576,30.266752],[-97.823422,30.265704],[-97.823004,30.264441],[-97.823118,30.263035],[-97.823477,30.262253],[-97.823602,30.261689],[-97.823608,30.26032],[-97.822447,30.257546],[-97.82175,30.256556],[-97.820757,30.255693],[-97.819119,30.254497],[-97.818373,30.254147],[-97.816722,30.25352],[-97.815549,30.252991],[-97.81364,30.251444],[-97.813141,30.249578],[-97.812817,30.248655],[-97.812534,30.247503],[-97.811866,30.246104],[-97.811192,30.244941],[-97.810947,30.244243],[-97.810715,30.243116],[-97.810867,30.243048],[-97.810708,30.242321],[-97.810828,30.241719],[-97.810864,30.241114],[-97.810781,30.240527],[-97.810359,30.239707],[-97.811181,30.2382],[-97.811798,30.238157],[-97.811938,30.237642],[-97.811738,30.237179],[-97.812094,30.236523],[-97.812413,30.23651],[-97.812708,30.236591],[-97.813168,30.236855],[-97.813604,30.237216],[-97.813948,30.237055],[-97.814122,30.236858],[-97.814226,30.236123],[-97.814466,30.235869],[-97.814785,30.235875],[-97.815366,30.236365],[-97.815715,30.235987],[-97.815852,30.235621],[-97.816384,30.235538],[-97.815916,30.234775],[-97.816323,30.234635],[-97.817344,30.234525],[-97.817768,30.233722],[-97.818171,30.233714],[-97.819229,30.233825],[-97.819798,30.234002],[-97.820301,30.234215],[-97.823517,30.229278],[-97.824759,30.229899],[-97.827447,30.22559],[-97.828138,30.224396],[-97.828607,30.224466],[-97.829968,30.222256],[-97.830309,30.220789],[-97.830232,30.220617],[-97.830668,30.21991],[-97.831231,30.220163],[-97.831833,30.219155],[-97.834378,30.220354],[-97.835348,30.218813],[-97.835434,30.218741],[-97.835806,30.219166],[-97.836207,30.219749],[-97.836264,30.219676],[-97.836646,30.220225],[-97.838256,30.218177],[-97.839003,30.217603],[-97.84046,30.216922],[-97.841737,30.216578],[-97.844983,30.216449],[-97.848078,30.217966],[-97.848332,30.217982],[-97.850348,30.217298],[-97.850938,30.217169],[-97.857829,30.220496],[-97.855528,30.22412],[-97.856588,30.224649],[-97.857391,30.224951],[-97.858779,30.225146]]]},"properties":{"area_id":"off_oak_hill","name":"Oak Hill","tier":"offhub_cluster","hub":null,"subsection":null,"status":"draft","rule":"City of Austin neighborhood planning area group 'Oak Hill Combined NPA' minus hubs","area_sq_mi":17.317}},{"type":"Feature","geometry":{"type":"Polygon","coordinates":[[[-97.689282,30.292539],[-97.689221,30.291776],[-97.689285,30.291387],[-97.689639,30.290643],[-97.690085,30.290108],[-97.690741,30.289781],[-97.691732,30.289427],[-97.692554,30.289496],[-97.69372,30.289894],[-97.694227,30.290023],[-97.695754,30.29014],[-97.696643,30.289902],[-97.698545,30.289098],[-97.699597,30.290654],[-97.701356,30.289754],[-97.70237,30.289091],[-97.703169,30.288691],[-97.703829,30.28857],[-97.705361,30.289193],[-97.707115,30.28921],[-97.707999,30.295886],[-97.708353,30.296886],[-97.708778,30.297855],[-97.710057,30.298893],[-97.708795,30.300905],[-97.708994,30.30119],[-97.709242,30.301368],[-97.709312,30.302476],[-97.711315,30.304676],[-97.712928,30.30541],[-97.710267,30.309473],[-97.7097,30.309131],[-97.698883,30.303912],[-97.697295,30.302399],[-97.695369,30.301568],[-97.691144,30.301332],[-97.690677,30.301133],[-97.691019,30.300515],[-97.690409,30.299738],[-97.69005,30.299536],[-97.690534,30.299249],[-97.691951,30.298142],[-97.692582,30.29876],[-97.693534,30.297223],[-97.693413,30.297163],[-97.693564,30.296935],[-97.693908,30.296661],[-97.693532,30.296565],[-97.689214,30.294529],[-97.689282,30.292539]]]},"properties":{"area_id":"off_rmma","name":"RMMA","tier":"offhub_cluster","hub":null,"subsection":null,"status":"draft","rule":"City of Austin neighborhood planning area group 'RMMA' minus hubs","area_sq_mi":1.138}},{"type":"Feature","geometry":{"type":"Polygon","coordinates":[[[-97.739192,30.319283],[-97.739568,30.318601],[-97.741575,30.315407],[-97.737579,30.313469],[-97.739319,30.311016],[-97.739978,30.309937],[-97.740725,30.308918],[-97.743024,30.305254],[-97.747546,30.307103],[-97.748583,30.307322],[-97.750525,30.30705],[-97.751625,30.307812],[-97.754508,30.308533],[-97.757188,30.308967],[-97.755733,30.319829],[-97.755699,30.3213],[-97.755275,30.321291],[-97.755176,30.321341],[-97.754831,30.321241],[-97.753486,30.320573],[-97.753126,30.320447],[-97.752482,30.320423],[-97.749138,30.318886],[-97.749348,30.319791],[-97.749368,30.320085],[-97.74929,30.320782],[-97.74922,30.320899],[-97.749109,30.320945],[-97.748873,30.320961],[-97.747999,30.320735],[-97.747587,30.320601],[-97.746896,30.32028],[-97.746164,30.320051],[-97.745863,30.320064],[-97.745445,30.320477],[-97.74524,30.320892],[-97.745163,30.32119],[-97.745238,30.321631],[-97.74541,30.322135],[-97.745782,30.322754],[-97.74594,30.323249],[-97.745799,30.323782],[-97.745764,30.324741],[-97.745919,30.325648],[-97.746157,30.326187],[-97.743891,30.325074],[-97.739331,30.322011],[-97.739131,30.319648],[-97.739192,30.319283]]]},"properties":{"area_id":"off_rosedale","name":"Rosedale","tier":"offhub_cluster","hub":null,"subsection":null,"status":"draft","rule":"City of Austin neighborhood planning area group 'ROSEDALE' minus hubs","area_sq_mi":0.992}},{"type":"Feature","geometry":{"type":"MultiPolygon","coordinates":[[[[-97.700522,30.277247],[-97.701156,30.278185],[-97.70071,30.277634],[-97.700522,30.277247]]],[[[-97.701832,30.279219],[-97.701823,30.279202],[-97.702176,30.279818],[-97.701832,30.279219]]],[[[-97.714311,30.28096],[-97.714576,30.281741],[-97.715061,30.282909],[-97.713797,30.283106],[-97.71384,30.283314],[-97.709831,30.283894],[-97.705312,30.28462],[-97.703953,30.282577],[-97.707009,30.28207],[-97.711544,30.281409],[-97.714311,30.28096]]],[[[-97.709048,30.265392],[-97.711551,30.264206],[-97.71335,30.263409],[-97.713249,30.264059],[-97.713251,30.264431],[-97.713547,30.265308],[-97.713753,30.265612],[-97.707094,30.268698],[-97.709048,30.265392]]]]},"properties":{"area_id":"off_rosewood","name":"Rosewood","tier":"offhub_cluster","hub":null,"subsection":null,"status":"draft","rule":"City of Austin neighborhood planning area group 'ROSEWOOD' minus hubs","area_sq_mi":0.145}},{"type":"Feature","geometry":{"type":"Polygon","coordinates":[[[-97.784511,30.202429],[-97.787796,30.197156],[-97.790368,30.198274],[-97.792051,30.198946],[-97.792781,30.199156],[-97.793615,30.199315],[-97.795009,30.199423],[-97.796199,30.199584],[-97.797914,30.200118],[-97.798727,30.200478],[-97.804311,30.202374],[-97.80615,30.202919],[-97.807722,30.203109],[-97.809827,30.204325],[-97.810648,30.204922],[-97.811181,30.205251],[-97.815408,30.207315],[-97.817927,30.208156],[-97.817768,30.20853],[-97.816732,30.209755],[-97.816914,30.209883],[-97.820293,30.214699],[-97.819984,30.215152],[-97.819041,30.214872],[-97.819089,30.214466],[-97.818887,30.214182],[-97.818273,30.214442],[-97.817808,30.214523],[-97.817733,30.2142],[-97.817701,30.214208],[-97.817776,30.214509],[-97.816629,30.214734],[-97.81667,30.214908],[-97.816509,30.215345],[-97.81609,30.215736],[-97.815773,30.215936],[-97.814139,30.217455],[-97.813774,30.217678],[-97.813608,30.217411],[-97.813567,30.21743],[-97.813734,30.217697],[-97.813715,30.217936],[-97.813093,30.218355],[-97.81286,30.218252],[-97.812783,30.218094],[-97.812564,30.217916],[-97.812087,30.217863],[-97.81084,30.219857],[-97.810585,30.219852],[-97.80919,30.22085],[-97.808809,30.221549],[-97.808512,30.221893],[-97.807877,30.221856],[-97.807107,30.221989],[-97.806281,30.221783],[-97.803905,30.225655],[-97.806392,30.22681],[-97.80496,30.2291],[-97.803185,30.232074],[-97.801856,30.232251],[-97.799443,30.232836],[-97.79965,30.230144],[-97.799096,30.230123],[-97.798589,30.23018],[-97.797878,30.230424],[-97.796613,30.231073],[-97.795544,30.231892],[-97.794112,30.232685],[-97.792055,30.231455],[-97.789015,30.230003],[-97.786154,30.228565],[-97.784618,30.227888],[-97.783254,30.227597],[-97.781428,30.227533],[-97.779529,30.227526],[-97.776478,30.227632],[-97.773483,30.227573],[-97.772087,30.227487],[-97.770929,30.22715],[-97.770165,30.226819],[-97.769513,30.226385],[-97.770025,30.225677],[-97.776797,30.214792],[-97.777314,30.214129],[-97.77852,30.212868],[-97.778959,30.21198],[-97.779246,30.211255],[-97.779764,30.210577],[-97.781478,30.208541],[-97.784511,30.202429]]]},"properties":{"area_id":"off_south_austin","name":"South Austin","tier":"offhub_cluster","hub":null,"subsection":null,"status":"draft","rule":"City of Austin neighborhood planning area group 'South Austin Combined NPA' minus hubs","area_sq_mi":4.128}},{"type":"Feature","geometry":{"type":"Polygon","coordinates":[[[-97.770863,30.190716],[-97.773451,30.191557],[-97.775204,30.191925],[-97.776779,30.192578],[-97.778853,30.193097],[-97.779582,30.193357],[-97.78103,30.194079],[-97.781532,30.194281],[-97.782946,30.194513],[-97.783246,30.194604],[-97.783856,30.194864],[-97.784429,30.195189],[-97.785401,30.195981],[-97.78589,30.196258],[-97.787796,30.197156],[-97.784511,30.202429],[-97.781478,30.208541],[-97.779764,30.210577],[-97.779246,30.211255],[-97.778959,30.21198],[-97.77852,30.212868],[-97.777314,30.214129],[-97.776797,30.214792],[-97.770025,30.225677],[-97.769513,30.226385],[-97.767309,30.225012],[-97.764012,30.222779],[-97.760059,30.220802],[-97.757425,30.219602],[-97.755829,30.218605],[-97.753978,30.216714],[-97.752999,30.216028],[-97.751823,30.215804],[-97.752774,30.214316],[-97.755022,30.210508],[-97.757687,30.206296],[-97.759352,30.204448],[-97.761299,30.2018],[-97.762594,30.200253],[-97.763965,30.198429],[-97.766834,30.194898],[-97.769021,30.192076],[-97.770462,30.19051],[-97.770863,30.190716]]]},"properties":{"area_id":"off_east_congress_sweetbriar_west_congress","name":"East Congress / Sweetbriar / West Congress","tier":"offhub_cluster","hub":null,"subsection":null,"status":"draft","rule":"City of Austin neighborhood planning area group 'South Congress Combined NPA' minus hubs","area_sq_mi":2.722}},{"type":"Feature","geometry":{"type":"MultiPolygon","coordinates":[[[[-97.801856,30.232251],[-97.803185,30.232074],[-97.802919,30.232525],[-97.803974,30.232359],[-97.804486,30.232339],[-97.805799,30.232444],[-97.806825,30.232709],[-97.808977,30.233566],[-97.809878,30.233881],[-97.81111,30.234106],[-97.807326,30.239947],[-97.807394,30.24013],[-97.808226,30.240504],[-97.808127,30.240879],[-97.807211,30.241867],[-97.806808,30.242178],[-97.806594,30.242284],[-97.806348,30.24251],[-97.806192,30.242532],[-97.806046,30.242713],[-97.802322,30.244881],[-97.802869,30.246287],[-97.803473,30.248039],[-97.801769,30.253091],[-97.80101,30.255147],[-97.800331,30.256215],[-97.798766,30.257044],[-97.793861,30.2603],[-97.789202,30.263156],[-97.786182,30.264578],[-97.780377,30.266974],[-97.776313,30.269134],[-97.773616,30.271245],[-97.771887,30.273207],[-97.763134,30.268065],[-97.76243,30.26777],[-97.761565,30.267222],[-97.760582,30.266809],[-97.756862,30.265095],[-97.754713,30.264609],[-97.757106,30.260558],[-97.760966,30.261578],[-97.761676,30.259507],[-97.76326,30.257956],[-97.765311,30.254668],[-97.767289,30.25252],[-97.768087,30.25182],[-97.768803,30.251286],[-97.769465,30.251001],[-97.770457,30.25067],[-97.773435,30.249852],[-97.776628,30.249368],[-97.778057,30.249061],[-97.778491,30.24889],[-97.779713,30.248287],[-97.784079,30.24536],[-97.787872,30.242541],[-97.79077,30.240521],[-97.791384,30.240156],[-97.792823,30.238933],[-97.793621,30.238482],[-97.794361,30.237955],[-97.795584,30.237302],[-97.796618,30.236659],[-97.798705,30.235492],[-97.799676,30.234743],[-97.800478,30.23434],[-97.799311,30.234549],[-97.799443,30.232836],[-97.801856,30.232251]]],[[[-97.767818,30.245122],[-97.765088,30.24427],[-97.764341,30.243944],[-97.763904,30.243578],[-97.760521,30.242539],[-97.75963,30.242117],[-97.76322,30.236473],[-97.763493,30.235981],[-97.764512,30.23445],[-97.764852,30.233827],[-97.767645,30.229455],[-97.769223,30.226926],[-97.769513,30.226385],[-97.770165,30.226819],[-97.770929,30.22715],[-97.772087,30.227487],[-97.773483,30.227573],[-97.776478,30.227632],[-97.779529,30.227526],[-97.781428,30.227533],[-97.783254,30.227597],[-97.784618,30.227888],[-97.786154,30.228565],[-97.789015,30.230003],[-97.792055,30.231455],[-97.794112,30.232685],[-97.792778,30.233494],[-97.791288,30.234298],[-97.79064,30.234774],[-97.789551,30.235403],[-97.788101,30.236635],[-97.787612,30.236927],[-97.78458,30.239041],[-97.780747,30.241886],[-97.77976,30.242511],[-97.776984,30.244434],[-97.776235,30.244804],[-97.772085,30.245484],[-97.768824,30.246376],[-97.768208,30.246584],[-97.768996,30.24602],[-97.76859,30.245506],[-97.767818,30.245122]]]]},"properties":{"area_id":"off_barton_hills_galindo_south_lamar_zilker","name":"Barton Hills / Galindo / South Lamar / Zilker","tier":"offhub_cluster","hub":null,"subsection":null,"status":"draft","rule":"City of Austin neighborhood planning area group 'South Lamar Combined NPA' minus hubs","area_sq_mi":5.334}},{"type":"Feature","geometry":{"type":"Polygon","coordinates":[[[-97.749653,30.183287],[-97.750001,30.182716],[-97.7519,30.182961],[-97.752321,30.183258],[-97.752314,30.183506],[-97.752052,30.184411],[-97.75261,30.18492],[-97.752313,30.185326],[-97.754358,30.187188],[-97.754209,30.187433],[-97.755432,30.187997],[-97.755429,30.18812],[-97.757107,30.189477],[-97.760582,30.193106],[-97.760687,30.194513],[-97.760481,30.195089],[-97.759547,30.196187],[-97.760942,30.197038],[-97.762858,30.197684],[-97.763965,30.198429],[-97.762594,30.200253],[-97.761299,30.2018],[-97.759352,30.204448],[-97.757687,30.206296],[-97.755022,30.210508],[-97.752774,30.214316],[-97.751823,30.215804],[-97.751047,30.215816],[-97.749396,30.215936],[-97.746305,30.216408],[-97.745136,30.216466],[-97.743999,30.216463],[-97.739733,30.216107],[-97.738814,30.216094],[-97.733308,30.215289],[-97.732549,30.215095],[-97.728336,30.214349],[-97.727962,30.214328],[-97.723054,30.213573],[-97.720504,30.213249],[-97.720462,30.213408],[-97.712291,30.212223],[-97.712394,30.212038],[-97.711136,30.211966],[-97.710233,30.212021],[-97.709752,30.212105],[-97.709405,30.212315],[-97.709077,30.21222],[-97.708136,30.212465],[-97.700749,30.214841],[-97.691251,30.218039],[-97.690482,30.218362],[-97.689547,30.218686],[-97.686458,30.220479],[-97.686598,30.220812],[-97.68497,30.220721],[-97.684408,30.220604],[-97.683765,30.220173],[-97.683404,30.219811],[-97.683464,30.217686],[-97.683477,30.205513],[-97.683785,30.201609],[-97.684244,30.198315],[-97.685189,30.192231],[-97.68608,30.188837],[-97.687589,30.183502],[-97.687793,30.182981],[-97.688376,30.183282],[-97.69072,30.185178],[-97.69757,30.190914],[-97.698409,30.191971],[-97.699097,30.192571],[-97.709268,30.201121],[-97.713524,30.197226],[-97.714713,30.198169],[-97.714808,30.198091],[-97.716929,30.199856],[-97.718453,30.197635],[-97.718974,30.19797],[-97.720252,30.19867],[-97.722748,30.195052],[-97.723061,30.194959],[-97.723292,30.194837],[-97.723527,30.194636],[-97.723688,30.194405],[-97.723807,30.193858],[-97.723813,30.193225],[-97.723982,30.192742],[-97.724281,30.192443],[-97.726184,30.191128],[-97.727023,30.190444],[-97.72688,30.190378],[-97.726987,30.190234],[-97.727182,30.19031],[-97.727362,30.190179],[-97.728073,30.190355],[-97.728911,30.190444],[-97.729542,30.190564],[-97.730443,30.190593],[-97.730977,30.190442],[-97.73241,30.18964],[-97.733541,30.188871],[-97.733623,30.188106],[-97.733834,30.187642],[-97.734766,30.186921],[-97.735262,30.186203],[-97.735981,30.185719],[-97.73615,30.184867],[-97.736041,30.183892],[-97.736495,30.183197],[-97.737233,30.183168],[-97.737684,30.182995],[-97.73814,30.183384],[-97.738635,30.1839],[-97.739261,30.184939],[-97.74007,30.185819],[-97.740363,30.186006],[-97.740892,30.186036],[-97.741437,30.185813],[-97.741585,30.185706],[-97.74174,30.185341],[-97.7413,30.183979],[-97.741382,30.183604],[-97.743124,30.180925],[-97.743675,30.180531],[-97.74468,30.18018],[-97.745361,30.180321],[-97.746011,30.180865],[-97.746293,30.181594],[-97.746004,30.182047],[-97.748419,30.183138],[-97.74885,30.183023],[-97.749653,30.183287]]]},"properties":{"area_id":"off_southeast","name":"Southeast","tier":"offhub_cluster","hub":null,"subsection":null,"status":"draft","rule":"City of Austin neighborhood planning area group 'Southeast Combined NPA' minus hubs","area_sq_mi":7.641}},{"type":"Feature","geometry":{"type":"Polygon","coordinates":[[[-97.688784,30.321447],[-97.691393,30.321418],[-97.695134,30.321476],[-97.700231,30.321974],[-97.70302,30.322204],[-97.705348,30.322343],[-97.706568,30.322249],[-97.706932,30.322117],[-97.708568,30.321685],[-97.70891,30.321555],[-97.71151,30.320887],[-97.711011,30.322151],[-97.710731,30.322533],[-97.706337,30.329539],[-97.706211,30.330012],[-97.707954,30.331032],[-97.708609,30.331161],[-97.709391,30.331081],[-97.70948,30.33166],[-97.708524,30.333228],[-97.707828,30.334575],[-97.70806,30.334676],[-97.707753,30.335132],[-97.707732,30.335426],[-97.707858,30.336212],[-97.707712,30.336608],[-97.707593,30.336658],[-97.705647,30.339748],[-97.703805,30.342548],[-97.701568,30.340074],[-97.700757,30.339383],[-97.700142,30.339181],[-97.686308,30.332581],[-97.679687,30.329532],[-97.676273,30.327695],[-97.673207,30.325607],[-97.677364,30.324219],[-97.680808,30.323006],[-97.682226,30.322678],[-97.684504,30.321889],[-97.685831,30.32152],[-97.688784,30.321447]]]},"properties":{"area_id":"off_st_john_coronado_hills","name":"St. John Coronado Hills","tier":"offhub_cluster","hub":null,"subsection":null,"status":"draft","rule":"City of Austin neighborhood planning area group 'St. John Coronado Hills Combined NPA' minus hubs","area_sq_mi":1.739}},{"type":"Feature","geometry":{"type":"Polygon","coordinates":[[[-97.726377,30.311402],[-97.731118,30.313685],[-97.732983,30.310849],[-97.738154,30.302746],[-97.743024,30.305254],[-97.740725,30.308918],[-97.739978,30.309937],[-97.739319,30.311016],[-97.736421,30.315179],[-97.735925,30.31549],[-97.732196,30.316784],[-97.731178,30.318299],[-97.730913,30.318799],[-97.725391,30.316319],[-97.723394,30.31594],[-97.726377,30.311402]]]},"properties":{"area_id":"off_triangle_state","name":"Triangle State","tier":"offhub_cluster","hub":null,"subsection":null,"status":"draft","rule":"City of Austin neighborhood planning area group 'TRIANGLE STATE' minus hubs","area_sq_mi":0.453}},{"type":"Feature","geometry":{"type":"MultiPolygon","coordinates":[[[[-97.724184,30.286079],[-97.724795,30.28627],[-97.724913,30.286429],[-97.719726,30.294952],[-97.718308,30.296523],[-97.716507,30.299892],[-97.712928,30.30541],[-97.711315,30.304676],[-97.709312,30.302476],[-97.709242,30.301368],[-97.708994,30.30119],[-97.708795,30.300905],[-97.710057,30.298893],[-97.708778,30.297855],[-97.708353,30.296886],[-97.707999,30.295886],[-97.707115,30.28921],[-97.706896,30.288044],[-97.710558,30.287456],[-97.714573,30.286875],[-97.723175,30.285488],[-97.724184,30.286079]]],[[[-97.722207,30.279658],[-97.72515,30.27911],[-97.725676,30.281369],[-97.721759,30.282045],[-97.71384,30.283314],[-97.713797,30.283106],[-97.715061,30.282909],[-97.714576,30.281741],[-97.714311,30.28096],[-97.715276,30.28076],[-97.722207,30.279658]]]]},"properties":{"area_id":"off_upper_boggy_creek","name":"Upper Boggy Creek","tier":"offhub_cluster","hub":null,"subsection":null,"status":"draft","rule":"City of Austin neighborhood planning area group 'UPPER BOGGY CREEK' minus hubs","area_sq_mi":0.899}},{"type":"Feature","geometry":{"type":"Polygon","coordinates":[[[-97.739251,30.280986],[-97.738988,30.283613],[-97.741902,30.283801],[-97.741169,30.29223],[-97.741117,30.292039],[-97.736611,30.291659],[-97.736545,30.292661],[-97.736013,30.293168],[-97.735689,30.292193],[-97.734538,30.29113],[-97.734564,30.289736],[-97.734697,30.289315],[-97.733263,30.28925],[-97.730888,30.28932],[-97.730284,30.289209],[-97.72971,30.288961],[-97.728635,30.2881],[-97.726733,30.287269],[-97.725982,30.286866],[-97.724913,30.286429],[-97.724795,30.28627],[-97.724184,30.286079],[-97.723175,30.285488],[-97.726104,30.284977],[-97.726878,30.283836],[-97.727306,30.28303],[-97.727083,30.281232],[-97.725676,30.281369],[-97.72515,30.27911],[-97.728488,30.278611],[-97.729814,30.278514],[-97.729903,30.278341],[-97.738115,30.280693],[-97.739251,30.280986]]]},"properties":{"area_id":"off_ut","name":"UT","tier":"offhub_cluster","hub":null,"subsection":null,"status":"draft","rule":"City of Austin neighborhood planning area group 'UT' minus hubs","area_sq_mi":0.645}},{"type":"Feature","geometry":{"type":"Polygon","coordinates":[[[-97.676136,30.308079],[-97.67844,30.307918],[-97.679512,30.307404],[-97.68132,30.304589],[-97.685142,30.30103],[-97.685916,30.300157],[-97.687063,30.298192],[-97.688009,30.296138],[-97.688871,30.295336],[-97.68921,30.294625],[-97.689214,30.294529],[-97.693532,30.296565],[-97.693908,30.296661],[-97.693564,30.296935],[-97.693413,30.297163],[-97.693534,30.297223],[-97.692582,30.29876],[-97.691951,30.298142],[-97.690534,30.299249],[-97.69005,30.299536],[-97.690409,30.299738],[-97.691019,30.300515],[-97.690677,30.301133],[-97.691144,30.301332],[-97.695369,30.301568],[-97.697295,30.302399],[-97.698883,30.303912],[-97.7097,30.309131],[-97.710267,30.309473],[-97.709886,30.310062],[-97.70851,30.312715],[-97.707962,30.314852],[-97.707175,30.319281],[-97.707114,30.320729],[-97.70691,30.321297],[-97.70673,30.321639],[-97.706568,30.322249],[-97.705348,30.322343],[-97.70302,30.322204],[-97.695134,30.321476],[-97.691393,30.321418],[-97.685831,30.32152],[-97.684504,30.321889],[-97.682226,30.322678],[-97.680808,30.323006],[-97.677364,30.324219],[-97.673207,30.325607],[-97.670656,30.323835],[-97.665664,30.319823],[-97.664112,30.317728],[-97.663049,30.31522],[-97.661711,30.310478],[-97.660995,30.307523],[-97.660716,30.30514],[-97.661392,30.300809],[-97.662636,30.296575],[-97.663594,30.297411],[-97.664251,30.297838],[-97.664077,30.298461],[-97.664519,30.298836],[-97.664776,30.299411],[-97.665039,30.300181],[-97.665566,30.300522],[-97.665646,30.300785],[-97.665648,30.301222],[-97.665747,30.301582],[-97.666068,30.301866],[-97.667216,30.304586],[-97.667951,30.305192],[-97.667862,30.306073],[-97.66707,30.306494],[-97.667946,30.30959],[-97.669044,30.308983],[-97.673042,30.30799],[-97.676136,30.308079]]]},"properties":{"area_id":"off_university_hills_and_windsor_park","name":"University Hills And Windsor Park","tier":"offhub_cluster","hub":null,"subsection":null,"status":"draft","rule":"City of Austin neighborhood planning area group 'University Hills and Windsor Park Combined NPA' minus hubs","area_sq_mi":3.508}},{"type":"Feature","geometry":{"type":"Polygon","coordinates":[[[-97.748672,30.215128],[-97.748913,30.213715],[-97.749312,30.21233],[-97.749865,30.210985],[-97.750568,30.209694],[-97.751412,30.208469],[-97.752391,30.207321],[-97.753494,30.206263],[-97.754711,30.205304],[-97.75603,30.204453],[-97.757439,30.203719],[-97.758924,30.203108],[-97.760471,30.202627],[-97.762065,30.20228],[-97.76369,30.20207],[-97.76533,30.202],[-97.766971,30.20207],[-97.768596,30.20228],[-97.770189,30.202627],[-97.771736,30.203108],[-97.773221,30.203719],[-97.77463,30.204453],[-97.775949,30.205304],[-97.777167,30.206263],[-97.77827,30.207321],[-97.779248,30.208469],[-97.780093,30.209694],[-97.780795,30.210985],[-97.781349,30.21233],[-97.781748,30.213715],[-97.781989,30.215128],[-97.782069,30.216555],[-97.781989,30.217981],[-97.781748,30.219394],[-97.781349,30.220779],[-97.780795,30.222124],[-97.780093,30.223415],[-97.779248,30.224641],[-97.77827,30.225788],[-97.777167,30.226846],[-97.775949,30.227805],[-97.77463,30.228656],[-97.773221,30.22939],[-97.771736,30.230001],[-97.770189,30.230482],[-97.768596,30.230829],[-97.766971,30.231039],[-97.76533,30.231109],[-97.76369,30.231039],[-97.762065,30.230829],[-97.760471,30.230482],[-97.758924,30.230001],[-97.757439,30.22939],[-97.75603,30.228656],[-97.754711,30.227805],[-97.753494,30.226846],[-97.752391,30.225788],[-97.751412,30.224641],[-97.750568,30.223415],[-97.749865,30.222124],[-97.749312,30.220779],[-97.748913,30.219394],[-97.748672,30.217981],[-97.748591,30.216555],[-97.748672,30.215128]]]},"properties":{"area_id":"home_1mi","name":"Home zone 1 mi","tier":"overlay","hub":null,"subsection":null,"status":"fixed","rule":"1-mile radius around 207 E St. Elmo Rd (address interpolated on the street centerline)","area_sq_mi":3.14}},{"type":"Feature","geometry":{"type":"Polygon","coordinates":[[[-97.731892,30.215126],[-97.732013,30.213701],[-97.732214,30.212283],[-97.732495,30.210876],[-97.732855,30.209482],[-97.733294,30.208105],[-97.733809,30.206748],[-97.7344,30.205415],[-97.735066,30.204109],[-97.735805,30.202833],[-97.736615,30.20159],[-97.737494,30.200383],[-97.73844,30.199214],[-97.739451,30.198088],[-97.740524,30.197006],[-97.741658,30.195971],[-97.742848,30.194986],[-97.744092,30.194053],[-97.745387,30.193174],[-97.746731,30.192351],[-97.748119,30.191587],[-97.749549,30.190883],[-97.751016,30.19024],[-97.752519,30.189661],[-97.754052,30.189147],[-97.755612,30.188699],[-97.757196,30.188318],[-97.758799,30.188005],[-97.760418,30.187761],[-97.762049,30.187586],[-97.763688,30.187481],[-97.76533,30.187446],[-97.766973,30.187481],[-97.768612,30.187586],[-97.770243,30.187761],[-97.771862,30.188005],[-97.773465,30.188318],[-97.775048,30.188699],[-97.776609,30.189147],[-97.778142,30.189661],[-97.779644,30.19024],[-97.781112,30.190883],[-97.782542,30.191587],[-97.78393,30.192351],[-97.785273,30.193174],[-97.786569,30.194053],[-97.787813,30.194986],[-97.789003,30.195971],[-97.790136,30.197006],[-97.791209,30.198088],[-97.79222,30.199214],[-97.793166,30.200383],[-97.794046,30.20159],[-97.794855,30.202833],[-97.795594,30.204109],[-97.79626,30.205415],[-97.796852,30.206748],[-97.797367,30.208105],[-97.797805,30.209482],[-97.798165,30.210876],[-97.798446,30.212283],[-97.798647,30.213701],[-97.798768,30.215126],[-97.798809,30.216555],[-97.798768,30.217983],[-97.798647,30.219408],[-97.798446,30.220826],[-97.798165,30.222233],[-97.797805,30.223627],[-97.797367,30.225004],[-97.796852,30.226361],[-97.79626,30.227694],[-97.795594,30.229],[-97.794855,30.230276],[-97.794046,30.23152],[-97.793166,30.232727],[-97.79222,30.233895],[-97.791209,30.235021],[-97.790136,30.236103],[-97.789003,30.237138],[-97.787813,30.238123],[-97.786569,30.239056],[-97.785273,30.239935],[-97.78393,30.240758],[-97.782542,30.241522],[-97.781112,30.242226],[-97.779644,30.242869],[-97.778142,30.243448],[-97.776609,30.243962],[-97.775048,30.24441],[-97.773465,30.244791],[-97.771862,30.245104],[-97.770243,30.245348],[-97.768612,30.245523],[-97.766973,30.245628],[-97.76533,30.245663],[-97.763688,30.245628],[-97.762049,30.245523],[-97.760418,30.245348],[-97.758799,30.245104],[-97.757196,30.244791],[-97.755612,30.24441],[-97.754052,30.243962],[-97.752519,30.243448],[-97.751016,30.242869],[-97.749549,30.242226],[-97.748119,30.241522],[-97.746731,30.240758],[-97.745387,30.239935],[-97.744092,30.239056],[-97.742848,30.238123],[-97.741658,30.237138],[-97.740524,30.236103],[-97.739451,30.235021],[-97.73844,30.233895],[-97.737494,30.232727],[-97.736615,30.23152],[-97.735805,30.230276],[-97.735066,30.229],[-97.7344,30.227694],[-97.733809,30.226361],[-97.733294,30.225004],[-97.732855,30.223627],[-97.732495,30.222233],[-97.732214,30.220826],[-97.732013,30.219408],[-97.731892,30.217983],[-97.731852,30.216555],[-97.731892,30.215126]]]},"properties":{"area_id":"home_2mi","name":"Home zone 2 mi","tier":"overlay","hub":null,"subsection":null,"status":"fixed","rule":"2-mile radius around 207 E St. Elmo Rd (address interpolated on the street centerline)","area_sq_mi":12.561}}]}